#aV2023  4  9  0  0  0.00000000     288 DD+AD WGS84 FIT  NGA
## 2257      0.00000000   300.00000000 60043 0.0000000000000
+   32     1  2  3  4  5  6  7  8  9 10 11 12 13 14 15 16 17
+         18 19 20 21 22 23 24 25 26 27 28 29 30 31 32  0  0
+          0  0  0  0  0  0  0  0  0  0  0  0  0  0  0  0  0
+          0  0  0  0  0  0  0  0  0  0  0  0  0  0  0  0  0
+          0  0  0  0  0  0  0  0  0  0  0  0  0  0  0  0  0
++         2  2  2  2  2  2  2  2  2  2  2  2  2  2  2  2  2
++         2  2  2  2  2  2  2  2  2  2  2  2  2  2  2  0  0
++         0  0  0  0  0  0  0  0  0  0  0  0  0  0  0  0  0
++         0  0  0  0  0  0  0  0  0  0  0  0  0  0  0  0  0
++         0  0  0  0  0  0  0  0  0  0  0  0  0  0  0  0  0
%c cc cc ccc ccc cccc cccc cccc cccc ccccc ccccc ccccc ccccc
%c cc cc ccc ccc cccc cccc cccc cccc ccccc ccccc ccccc ccccc
%f  0.0000000  0.000000000  0.00000000000  0.000000000000000
%f  0.0000000  0.000000000  0.00000000000  0.000000000000000
%i    0    0    0    0      0      0      0      0         0
%i    0    0    0    0      0      0      0      0         0
/*      NGA, ST. LOUIS,MO.                                  
/*   EPHEMERIS COMPUTED FROM 2 DAYS OF DATA                 
/*   EPOCHA v8 SMOOTHER                                     
/*   G2139 IERS2010 SATIGS SATAPC                           
*  2023  4  9 23 10  0.00000000
P  1  17328.272353  13829.038821 -15216.492376    194.707997                    
V  1 -18366.100588  -2767.395325 -23604.292298     -0.033642                    
P  2 -22547.110178  -9740.082637  10512.410524   -607.545022                    
V  2  12734.375289   -901.608777  28149.723089      0.036309                    
P  3  12906.022063  22043.489494   7376.468205   -332.771096                    
V  3   1156.835295   9640.840558 -30203.404208      0.084483                    
P  4   9461.855677  12036.832748  21707.779001     13.020212                    
V  4 -18943.037000  19992.334063  -2940.147400      0.091412                    
P  5  -3989.601358 -24896.187738   7982.347939   -122.791810                    
V  5   6296.202116   8680.377462  29706.673307     -0.014616                    
P  6  20484.585843  -6452.446100  15755.384997    586.223453                    
V  6  19157.310484   5134.939407 -22799.906352      0.015390                    
P  7  25714.786174   7199.807913   3025.908977    204.887522                    
V  7  -3700.577015   1985.594899  30913.400738     -0.084301                    
P  8   -925.804267  20124.020174 -17171.015917   -116.994320                    
V  8 -15373.193156  15628.277743  19607.571230     -0.017299                    
P  9  17266.841926   1385.461607  20074.320010   -183.325210                    
V  9 -15496.380766  20474.940517  11830.036858      0.078673                    
P 10 -13770.459409   5319.877952 -21897.546501    -32.155025                    
V 10  -9481.865120 -26546.887691   -781.529427     -0.016502                    
P 11   6896.169371 -13744.325776  21662.253341   -157.288976                    
V 11  26597.037917   6890.062847  -4129.735897     -0.124430                    
P 12 -10144.104128 -24005.699827   5086.748386   -361.984096                    
V 12    689.548224  -7228.184666 -30930.537309     -0.046364                    
P 13   9693.400637 -20761.688305 -13432.714576    503.391236                    
V 13  14039.419296  -9517.342237  25364.251134      0.056313                    
P 14  15450.923746  -2172.739719 -21495.197927     20.357986                    
V 14   7915.639415  26174.481068   2904.621914      0.113394                    
P 15  -2298.393639 -20225.128633 -17378.982117     29.200859                    
V 15  13494.725767 -16749.753189  18455.092261      0.034054                    
P 16  -1151.130203  24159.464862  10121.381893   -509.954668                    
V 16  -5982.361374 -12361.661103  28435.231949      0.026583                    
P 17  21320.251729 -11366.931007 -10720.783612    709.806062                    
V 17  -8432.176211  11622.009338 -27876.960452      0.018104                    
P 18 -26207.628454  -4598.187023  -1344.225498   -217.191920                    
V 18  -1190.845203  -2575.522356  31885.295970     -0.167417                    
P 19  20377.249578 -16623.917544  -2578.976862    301.522004                    
V 19   -416.300049   3977.145388 -32006.392508      0.050963                    
P 20   2122.187644 -20813.216060  16515.245519    439.950288                    
V 20  11741.583893  17353.722022  20207.471377     -0.021573                    
P 21  10178.576311  14647.809418 -19377.462377    154.261531                    
V 21 -25536.408732  -1745.208348 -13495.754434     -0.000779                    
P 22 -18215.486763  19179.827055   1382.235266    461.241325                    
V 22  -2907.155801  -1215.505162 -31835.140087      0.069179                    
P 23 -16835.237156  -7634.677921 -19121.482531     15.791987                    
V 23  -7561.354232 -23024.277036  15701.279227      0.025006                    
P 24 -13908.059618 -14650.406447 -17802.028701   -145.601624                    
V 24  21904.857001    508.387264 -17470.107966     -0.147190                    
P 25 -16035.656035 -16250.219744  13483.179545    434.388289                    
V 25  -3805.612891 -17289.630173 -24521.402352      0.028941                    
P 26  -8735.185264  15819.717605  19239.774876    241.822089                    
V 26 -11329.796828 -22219.547076  13386.196019     -0.001943                    
P 27 -10923.604546  22295.090191  -9071.543361     62.423516                    
V 27  -9357.939930   6848.264883  29289.296489     -0.081715                    
P 28 -21671.658326   6443.270565  13906.468113     62.099099                    
V 28 -17163.729244  -4847.216018 -24458.756019      0.069153                    
P 29 -14376.860739  -6122.675553  21435.400151   -594.813987                    
V 29  19024.837205 -19559.469770   7074.536355     -0.016633                    
P 30  25081.938263  -1617.582875  -8880.572134   -523.130526                    
V 30  10548.522649   5279.421456  28228.372771      0.018197                    
P 31 -16308.498662   9884.595209  18501.144017   -213.608107                    
V 31 -22886.959492  -6311.517154 -16211.626000     -0.008567                    
P 32 -20338.802366  14265.761837  -8935.114796   -447.234553                    
V 32   5401.136773 -10705.543700 -29013.717180     -0.102257                    
EOF
